{"type":"FeatureCollection", "features": [
{"type":"Feature","geometry":{"type":"MultiPolygon","coordinates":[[[[73.0111,8.2776],[73.011,8.2777],[73.0109,8.2778],[73.0107,8.2779],[73.0105,8.2779],[73.0103,8.2779],[73.0103,8.2778],[73.0103,8.2776],[73.0103,8.2773],[73.0104,8.277],[73.0107,8.2766],[73.0111,8.2763],[73.0112,8.2762],[73.0114,8.2762],[73.0116,8.2762],[73.0117,8.2763],[73.0119,8.2764],[73.012,8.2766],[73.0121,8.2768],[73.0121,8.2769],[73.012,8.277],[73.012,8.2771],[73.0119,8.2771],[73.0118,8.2771],[73.0116,8.2771],[73.0115,8.2771],[73.0114,8.2772],[73.0112,8.2774],[73.0111,8.2776]]],[[[73.0486,8.2662],[73.0504,8.2684],[73.051,8.2695],[73.052,8.2707],[73.0535,8.2723],[73.0542,8.2733],[73.0546,8.274],[73.055,8.2745],[73.057,8.2763],[73.0603,8.2795],[73.0614,8.2804],[73.0652,8.2838],[73.066,8.285],[73.0663,8.2857],[73.0664,8.2865],[73.0663,8.288],[73.0662,8.2886],[73.0659,8.2894],[73.0656,8.2913],[73.0656,8.2926],[73.0656,8.2938],[73.0659,8.2956],[73.0662,8.2969],[73.0661,8.2976],[73.066,8.2984],[73.0661,8.2991],[73.0662,8.2999],[73.0666,8.3012],[73.0669,8.3028],[73.0691,8.3084],[73.07,8.3103],[73.0735,8.3164],[73.0748,8.3187],[73.0756,8.3206],[73.0764,8.3218],[73.0776,8.3232],[73.0781,8.3235],[73.0785,8.3239],[73.0785,8.3241],[73.0784,8.3243],[73.0783,8.3243],[73.078,8.3241],[73.0773,8.3234],[73.0762,8.3223],[73.0749,8.3206],[73.0744,8.3196],[73.0733,8.3173],[73.0714,8.3139],[73.0699,8.3113],[73.0687,8.3091],[73.0684,8.3081],[73.068,8.3071],[73.0672,8.3053],[73.0661,8.3028],[73.0658,8.302],[73.0653,8.2995],[73.0651,8.298],[73.0649,8.2964],[73.0645,8.2953],[73.0636,8.2939],[73.062,8.2919],[73.0601,8.2896],[73.0594,8.288],[73.0582,8.2862],[73.0572,8.2844],[73.0558,8.282],[73.0543,8.2809],[73.0524,8.2794],[73.0498,8.2773],[73.0487,8.2765],[73.0483,8.2761],[73.0478,8.2755],[73.0467,8.2747],[73.0446,8.2735],[73.0427,8.2728],[73.0403,8.2722],[73.0394,8.272],[73.0378,8.2723],[73.037,8.2723],[73.0343,8.2722],[73.0337,8.2721],[73.0332,8.272],[73.0292,8.2709],[73.0282,8.2708],[73.0253,8.2709],[73.0234,8.271],[73.0225,8.2711],[73.0217,8.2714],[73.0205,8.2721],[73.0201,8.2725],[73.0199,8.2728],[73.0197,8.2734],[73.0195,8.2737],[73.019,8.2741],[73.0188,8.2744],[73.0188,8.2746],[73.0189,8.2748],[73.019,8.2748],[73.0193,8.2748],[73.0195,8.2746],[73.0197,8.2744],[73.02,8.2741],[73.0202,8.2738],[73.0207,8.2735],[73.0209,8.2733],[73.0212,8.2729],[73.0216,8.2726],[73.0218,8.2722],[73.022,8.2721],[73.0222,8.2721],[73.0223,8.2722],[73.0223,8.2724],[73.0222,8.2726],[73.0219,8.2729],[73.0218,8.2731],[73.0217,8.2734],[73.0214,8.2742],[73.0211,8.2744],[73.0208,8.2747],[73.0205,8.2749],[73.0201,8.275],[73.0197,8.2751],[73.0195,8.2753],[73.0191,8.2757],[73.0188,8.2759],[73.0186,8.276],[73.0183,8.2761],[73.0181,8.276],[73.0179,8.2759],[73.0178,8.2757],[73.0178,8.2754],[73.0178,8.2751],[73.0181,8.2744],[73.0186,8.2728],[73.0189,8.2716],[73.0189,8.2705],[73.019,8.2702],[73.0196,8.2697],[73.02,8.2693],[73.0208,8.2688],[73.0215,8.2685],[73.0231,8.2678],[73.0246,8.2672],[73.0277,8.2664],[73.0318,8.2651],[73.036,8.2644],[73.0381,8.2643],[73.0428,8.264],[73.0445,8.2643],[73.0464,8.2647],[73.0475,8.2652],[73.0486,8.2662]]],[[[73.0136,8.3023],[73.0136,8.3021],[73.0138,8.302],[73.0139,8.302],[73.014,8.302],[73.014,8.3021],[73.014,8.3022],[73.014,8.3023],[73.0139,8.3024],[73.0138,8.3024],[73.0137,8.3024],[73.0136,8.3023]]],[[[73.6302,10.0681],[73.6302,10.0679],[73.6304,10.0679],[73.6305,10.068],[73.6305,10.0681],[73.6304,10.0682],[73.6303,10.0682],[73.6302,10.0681]]],[[[72.2834,10.0417],[72.2833,10.0415],[72.2834,10.0413],[72.2834,10.0412],[72.2838,10.0411],[72.2842,10.0412],[72.2849,10.0413],[72.2859,10.0421],[72.2864,10.0425],[72.287,10.0431],[72.2875,10.044],[72.2879,10.0447],[72.2884,10.0452],[72.2887,10.0456],[72.2889,10.0462],[72.2891,10.0468],[72.2892,10.0471],[72.2892,10.0475],[72.2893,10.0477],[72.2894,10.0479],[72.2894,10.0481],[72.2893,10.0497],[72.2897,10.051],[72.2905,10.0526],[72.2905,10.0532],[72.2903,10.0531],[72.2899,10.0529],[72.2888,10.0499],[72.2886,10.0497],[72.2882,10.0494],[72.2877,10.0489],[72.2874,10.0483],[72.2871,10.048],[72.2863,10.0473],[72.2855,10.0463],[72.285,10.0453],[72.2847,10.0448],[72.2846,10.0442],[72.2844,10.0435],[72.2841,10.0429],[72.2839,10.0425],[72.2836,10.0421],[72.2834,10.0417]]],[[[72.335,10.1013],[72.3357,10.1022],[72.3364,10.1035],[72.3368,10.1044],[72.3368,10.1043],[72.3375,10.1053],[72.3377,10.106],[72.3377,10.1064],[72.3373,10.1068],[72.3369,10.1073],[72.3365,10.1076],[72.3361,10.1075],[72.3361,10.1071],[72.3366,10.106],[72.3363,10.1048],[72.3358,10.1036],[72.3354,10.1026],[72.3345,10.1015],[72.3343,10.1009],[72.3346,10.1009],[72.335,10.1013]]],[[[72.3332,10.1286],[72.3329,10.1289],[72.3328,10.1292],[72.3327,10.1297],[72.3326,10.1298],[72.3323,10.1301],[72.3322,10.1305],[72.3321,10.1309],[72.332,10.1316],[72.3319,10.1322],[72.3319,10.1327],[72.3318,10.133],[72.3316,10.1332],[72.3312,10.1335],[72.3307,10.134],[72.3303,10.1348],[72.3301,10.1354],[72.33,10.1358],[72.3299,10.1362],[72.3297,10.1366],[72.3294,10.137],[72.3292,10.1372],[72.3289,10.1375],[72.3287,10.1378],[72.3286,10.138],[72.3286,10.1382],[72.3286,10.1385],[72.3286,10.1387],[72.3285,10.1388],[72.3284,10.1388],[72.3283,10.1388],[72.3281,10.1387],[72.3279,10.1386],[72.3278,10.1383],[72.3276,10.1379],[72.3276,10.1376],[72.3277,10.1372],[72.3278,10.1368],[72.3279,10.1363],[72.3281,10.1354],[72.3282,10.1348],[72.3283,10.1344],[72.3284,10.1332],[72.3284,10.1327],[72.3283,10.1325],[72.3283,10.1323],[72.328,10.1317],[72.3279,10.1314],[72.3277,10.1312],[72.3274,10.131],[72.3273,10.1308],[72.3272,10.1306],[72.3273,10.1301],[72.3274,10.1298],[72.3275,10.1297],[72.3278,10.1295],[72.3285,10.1294],[72.329,10.1295],[72.3293,10.1295],[72.3297,10.1297],[72.33,10.1298],[72.3304,10.1299],[72.3311,10.1297],[72.3315,10.1294],[72.3319,10.1291],[72.3321,10.1289],[72.3323,10.1286],[72.3326,10.128],[72.3328,10.1279],[72.3331,10.128],[72.3332,10.128],[72.3333,10.1282],[72.3333,10.1283],[72.3332,10.1286]]],[[[72.6456,10.5784],[72.6454,10.5784],[72.6452,10.5784],[72.6449,10.5783],[72.6447,10.5782],[72.6442,10.5784],[72.6433,10.5787],[72.6423,10.5791],[72.6417,10.5793],[72.6413,10.5794],[72.6411,10.5794],[72.6408,10.5794],[72.6406,10.5793],[72.6406,10.579],[72.6408,10.5783],[72.6406,10.5777],[72.6404,10.577],[72.64,10.5759],[72.6399,10.5755],[72.64,10.5754],[72.6397,10.5745],[72.6397,10.5744],[72.6394,10.5737],[72.6394,10.5736],[72.6393,10.5736],[72.6389,10.573],[72.6385,10.5723],[72.6384,10.5721],[72.6381,10.5714],[72.6378,10.5706],[72.6373,10.5696],[72.637,10.5692],[72.6366,10.5686],[72.6361,10.5678],[72.635,10.5657],[72.6337,10.5636],[72.6331,10.5627],[72.6328,10.5624],[72.6323,10.5616],[72.6319,10.5608],[72.6312,10.5598],[72.6307,10.559],[72.6299,10.5579],[72.6291,10.5567],[72.6282,10.5553],[72.6274,10.5543],[72.627,10.5536],[72.6267,10.5533],[72.6264,10.5527],[72.6262,10.5523],[72.6257,10.5512],[72.6256,10.5509],[72.6252,10.5503],[72.6249,10.5499],[72.6247,10.5497],[72.6243,10.5491],[72.6237,10.5485],[72.6234,10.5481],[72.6233,10.548],[72.623,10.548],[72.6227,10.548],[72.6225,10.548],[72.6222,10.5481],[72.622,10.5481],[72.6217,10.5479],[72.6215,10.5478],[72.6212,10.5477],[72.6209,10.5476],[72.6206,10.5475],[72.6203,10.5473],[72.6201,10.5471],[72.6199,10.547],[72.6196,10.5469],[72.6192,10.5468],[72.6189,10.5467],[72.6185,10.5465],[72.6182,10.5463],[72.6178,10.5458],[72.6175,10.5455],[72.6172,10.545],[72.6169,10.5447],[72.6166,10.5443],[72.6165,10.5441],[72.6165,10.5437],[72.6165,10.5434],[72.6166,10.543],[72.6167,10.5427],[72.617,10.5424],[72.6172,10.5422],[72.6175,10.5421],[72.6178,10.542],[72.6181,10.5421],[72.6184,10.5422],[72.6187,10.5424],[72.6193,10.5428],[72.6198,10.5431],[72.6201,10.5433],[72.6203,10.5435],[72.6206,10.5437],[72.6209,10.5441],[72.6213,10.5444],[72.6216,10.5448],[72.6218,10.5452],[72.6222,10.5456],[72.6227,10.546],[72.6231,10.5465],[72.6235,10.547],[72.6237,10.5473],[72.6239,10.5478],[72.6243,10.5483],[72.625,10.5489],[72.6255,10.5493],[72.6261,10.5497],[72.6282,10.5513],[72.6294,10.5522],[72.6307,10.5531],[72.6321,10.5542],[72.6345,10.5561],[72.6354,10.5568],[72.6363,10.5575],[72.637,10.5578],[72.6378,10.5583],[72.6384,10.5585],[72.6389,10.5586],[72.6393,10.5586],[72.6401,10.5589],[72.6406,10.5593],[72.6415,10.5597],[72.6424,10.5602],[72.6433,10.5605],[72.6437,10.5606],[72.6442,10.5606],[72.6449,10.5607],[72.646,10.5611],[72.6467,10.5613],[72.6473,10.5618],[72.648,10.5623],[72.6489,10.5629],[72.6493,10.5632],[72.6497,10.5636],[72.65,10.5639],[72.6502,10.5645],[72.6503,10.565],[72.6503,10.5655],[72.6504,10.566],[72.6506,10.5667],[72.6507,10.5669],[72.651,10.5678],[72.6513,10.5687],[72.6514,10.5693],[72.6513,10.57],[72.6511,10.5712],[72.6509,10.5721],[72.6504,10.5733],[72.6498,10.5746],[72.6492,10.5756],[72.6485,10.5765],[72.648,10.5769],[72.6477,10.5774],[72.6471,10.5781],[72.6467,10.5784],[72.6464,10.5784],[72.646,10.5783],[72.6458,10.5783],[72.6456,10.5784]]],[[[72.1686,10.8136],[72.1685,10.8138],[72.1684,10.814],[72.1685,10.8144],[72.1686,10.8148],[72.1687,10.815],[72.1688,10.8152],[72.1687,10.8153],[72.1686,10.8153],[72.1684,10.8151],[72.1682,10.815],[72.1679,10.8149],[72.1677,10.8149],[72.1674,10.8149],[72.1672,10.8149],[72.1667,10.8147],[72.1664,10.8146],[72.1659,10.8143],[72.1655,10.814],[72.1651,10.8137],[72.1649,10.8135],[72.1648,10.8132],[72.1649,10.813],[72.165,10.8129],[72.1651,10.8128],[72.1654,10.8127],[72.1661,10.8128],[72.1665,10.8128],[72.167,10.8128],[72.1674,10.8128],[72.1677,10.8128],[72.168,10.8128],[72.1682,10.8128],[72.1685,10.8128],[72.1687,10.8128],[72.1689,10.8129],[72.169,10.813],[72.1691,10.8131],[72.169,10.8132],[72.1689,10.8133],[72.1687,10.8135],[72.1686,10.8136]]],[[[72.2061,10.8785],[72.2059,10.8786],[72.2055,10.8787],[72.2049,10.8786],[72.2045,10.8786],[72.2043,10.8786],[72.2038,10.8785],[72.2036,10.8785],[72.2033,10.8785],[72.203,10.8786],[72.2025,10.8787],[72.202,10.8788],[72.2016,10.8789],[72.2012,10.8789],[72.2011,10.8789],[72.201,10.8788],[72.2007,10.8784],[72.1997,10.8772],[72.1993,10.8767],[72.1982,10.8756],[72.1977,10.8749],[72.1972,10.8743],[72.1964,10.8734],[72.1961,10.8731],[72.1957,10.8726],[72.195,10.8719],[72.1947,10.8714],[72.1944,10.8709],[72.194,10.8697],[72.1934,10.8684],[72.1932,10.8676],[72.1931,10.8671],[72.1927,10.8653],[72.1925,10.8647],[72.1923,10.8639],[72.1918,10.8628],[72.1917,10.8623],[72.1914,10.8614],[72.1913,10.8604],[72.1912,10.86],[72.1909,10.8589],[72.1906,10.8578],[72.1903,10.8566],[72.1898,10.8551],[72.1894,10.8539],[72.189,10.8522],[72.1887,10.8511],[72.1885,10.8502],[72.1882,10.8493],[72.1876,10.8482],[72.1871,10.8471],[72.1865,10.8461],[72.1859,10.8449],[72.1853,10.8437],[72.185,10.8432],[72.1842,10.8419],[72.1837,10.841],[72.183,10.8396],[72.1823,10.8377],[72.1818,10.8364],[72.1809,10.8344],[72.1805,10.8337],[72.1797,10.8322],[72.1791,10.8309],[72.1781,10.8294],[72.1774,10.8286],[72.1766,10.8275],[72.1756,10.8261],[72.1749,10.8252],[72.174,10.8241],[72.1731,10.8227],[72.1715,10.8207],[72.1711,10.8201],[72.1709,10.8198],[72.1707,10.8195],[72.17,10.8185],[72.1701,10.8182],[72.1703,10.8182],[72.1707,10.8183],[72.171,10.8185],[72.1715,10.8188],[72.1724,10.8197],[72.1729,10.8201],[72.1731,10.8204],[72.1735,10.8209],[72.1739,10.8214],[72.1746,10.8222],[72.1751,10.823],[72.1754,10.8234],[72.176,10.824],[72.1764,10.8246],[72.1767,10.8249],[72.1772,10.8255],[72.1777,10.8263],[72.1783,10.827],[72.179,10.8279],[72.1797,10.8289],[72.1802,10.8299],[72.1805,10.8308],[72.1808,10.8313],[72.1811,10.8321],[72.1814,10.833],[72.1816,10.8337],[72.1819,10.8345],[72.1825,10.8356],[72.1828,10.8364],[72.1833,10.8373],[72.1838,10.8382],[72.184,10.8385],[72.1846,10.8397],[72.1853,10.8411],[72.1857,10.8418],[72.1864,10.843],[72.1868,10.8438],[72.1872,10.8445],[72.1877,10.8454],[72.1883,10.8465],[72.1892,10.8481],[72.19,10.8494],[72.1905,10.8501],[72.1911,10.851],[72.1916,10.8518],[72.1923,10.8527],[72.1929,10.8538],[72.1935,10.8546],[72.1942,10.8556],[72.1947,10.8564],[72.1951,10.857],[72.1959,10.8581],[72.1965,10.8592],[72.1973,10.8603],[72.1984,10.862],[72.1993,10.8633],[72.2,10.8645],[72.2006,10.8655],[72.2013,10.867],[72.2018,10.8678],[72.2024,10.8687],[72.2028,10.8694],[72.2035,10.8707],[72.204,10.8719],[72.2046,10.8731],[72.2053,10.8745],[72.206,10.8757],[72.2063,10.8764],[72.2064,10.877],[72.2065,10.8776],[72.2065,10.878],[72.2064,10.8783],[72.2061,10.8785]]],[[[72.2909,10.9464],[72.2906,10.9465],[72.2902,10.9464],[72.2896,10.9464],[72.2892,10.9464],[72.2889,10.9466],[72.2884,10.9469],[72.2879,10.9472],[72.2877,10.9472],[72.2874,10.9469],[72.2871,10.9464],[72.2869,10.9455],[72.2866,10.9446],[72.2865,10.9434],[72.2864,10.9427],[72.2861,10.9418],[72.2859,10.9412],[72.2856,10.9404],[72.2854,10.9395],[72.2852,10.9388],[72.2849,10.9381],[72.2847,10.9376],[72.2848,10.9371],[72.285,10.9367],[72.2853,10.9365],[72.2857,10.9363],[72.2861,10.9362],[72.2869,10.9361],[72.2876,10.9359],[72.2884,10.9357],[72.289,10.9357],[72.2896,10.9357],[72.2901,10.9358],[72.2907,10.936],[72.2914,10.9363],[72.2918,10.9366],[72.2921,10.9367],[72.2925,10.9368],[72.2928,10.937],[72.2927,10.9373],[72.2925,10.9378],[72.2921,10.9383],[72.2915,10.9389],[72.2909,10.9394],[72.2906,10.9401],[72.2904,10.9409],[72.2901,10.9417],[72.2899,10.9426],[72.2896,10.9436],[72.2896,10.9443],[72.2898,10.9449],[72.2903,10.9456],[72.2906,10.9459],[72.2909,10.9461],[72.2911,10.9461],[72.2913,10.9461],[72.2918,10.9462],[72.2924,10.9461],[72.293,10.946],[72.2933,10.946],[72.2935,10.9461],[72.2935,10.9463],[72.2933,10.9464],[72.2928,10.9464],[72.292,10.9464],[72.2909,10.9464]]],[[[72.3214,10.9467],[72.3222,10.9474],[72.3235,10.9485],[72.3242,10.9492],[72.3249,10.9499],[72.3255,10.9504],[72.3264,10.9508],[72.3269,10.9512],[72.3271,10.9514],[72.327,10.9516],[72.3268,10.9516],[72.3264,10.9513],[72.3258,10.9511],[72.325,10.9506],[72.3236,10.9503],[72.3225,10.9502],[72.3212,10.95],[72.3204,10.95],[72.3194,10.9499],[72.3188,10.9499],[72.3183,10.9499],[72.3177,10.9498],[72.3173,10.9498],[72.3171,10.9497],[72.3165,10.9493],[72.3161,10.9488],[72.3157,10.9482],[72.3154,10.9475],[72.3154,10.9469],[72.3154,10.9464],[72.3154,10.9461],[72.3153,10.9456],[72.3153,10.9451],[72.3153,10.9446],[72.3154,10.9442],[72.3154,10.9439],[72.3154,10.9436],[72.3157,10.9436],[72.3163,10.9436],[72.3169,10.944],[72.3177,10.9445],[72.3188,10.945],[72.32,10.9457],[72.3206,10.9461],[72.3214,10.9467]]],[[[72.3317,10.9507],[72.3319,10.9509],[72.3321,10.9512],[72.3325,10.9515],[72.3328,10.9518],[72.3332,10.952],[72.3333,10.952],[72.3334,10.9523],[72.3336,10.9526],[72.3336,10.9527],[72.3335,10.9528],[72.3331,10.9529],[72.3328,10.9528],[72.3323,10.9524],[72.3319,10.9521],[72.3316,10.9519],[72.3314,10.9518],[72.3312,10.9518],[72.331,10.9517],[72.3305,10.9517],[72.3304,10.9517],[72.3304,10.9515],[72.3305,10.9512],[72.3307,10.9509],[72.331,10.9507],[72.3312,10.9506],[72.3315,10.9506],[72.3317,10.9507]]],[[[72.3344,10.9535],[72.3346,10.9538],[72.3347,10.9541],[72.3347,10.9545],[72.3348,10.9549],[72.3349,10.9552],[72.3348,10.9553],[72.3346,10.9553],[72.3345,10.9552],[72.3344,10.9551],[72.3343,10.955],[72.3341,10.955],[72.3339,10.955],[72.3336,10.9551],[72.3333,10.9551],[72.3331,10.9551],[72.333,10.955],[72.3329,10.9548],[72.3329,10.9545],[72.333,10.9544],[72.3333,10.9543],[72.3335,10.9542],[72.3337,10.9542],[72.3338,10.9541],[72.3339,10.9539],[72.3339,10.9537],[72.3338,10.9534],[72.3338,10.9532],[72.3339,10.9531],[72.3341,10.9531],[72.3342,10.9532],[72.3344,10.9535]]],[[[72.3343,10.9572],[72.3343,10.9568],[72.3344,10.9564],[72.3346,10.9562],[72.335,10.9562],[72.3353,10.9564],[72.3355,10.9566],[72.3355,10.957],[72.3355,10.9575],[72.3354,10.9579],[72.3352,10.9584],[72.3349,10.9587],[72.3346,10.959],[72.3345,10.9592],[72.3343,10.9593],[72.3342,10.9593],[72.3341,10.9591],[72.3341,10.9588],[72.3342,10.9586],[72.3343,10.9584],[72.3344,10.9581],[72.3344,10.9577],[72.3343,10.9572]]],[[[72.1889,11.5988],[72.1895,11.5988],[72.1898,11.5988],[72.1903,11.5988],[72.1904,11.5989],[72.1904,11.5991],[72.1902,11.5994],[72.19,11.5997],[72.1895,11.6004],[72.1892,11.6007],[72.1889,11.6009],[72.1884,11.6012],[72.1877,11.6015],[72.1872,11.6017],[72.1866,11.602],[72.1863,11.6021],[72.1861,11.6021],[72.1858,11.602],[72.1856,11.602],[72.1855,11.6019],[72.1853,11.6018],[72.1853,11.6017],[72.1853,11.6015],[72.1856,11.6012],[72.186,11.6008],[72.1863,11.6003],[72.1864,11.5999],[72.1864,11.5997],[72.1865,11.5992],[72.1865,11.599],[72.1865,11.5989],[72.1867,11.5987],[72.1871,11.5987],[72.1879,11.5988],[72.1884,11.5988],[72.1889,11.5988]]],[[[73.6312,10.0681],[73.6311,10.0682],[73.631,10.0681],[73.6308,10.0681],[73.6308,10.068],[73.6309,10.0679],[73.6311,10.068],[73.6312,10.0681]]],[[[73.632,10.0685],[73.6319,10.0685],[73.6317,10.0684],[73.6316,10.0683],[73.6317,10.0682],[73.6318,10.0682],[73.6319,10.0682],[73.632,10.0683],[73.6321,10.0684],[73.6321,10.0685],[73.632,10.0685]]],[[[73.6309,10.0688],[73.6307,10.0688],[73.6306,10.0687],[73.6305,10.0686],[73.6305,10.0684],[73.6306,10.0682],[73.6309,10.0682],[73.6314,10.0683],[73.6317,10.0685],[73.6318,10.0687],[73.6316,10.0689],[73.6312,10.0689],[73.6309,10.0688]]],[[[73.6324,10.0689],[73.6323,10.0689],[73.6322,10.0689],[73.6321,10.0688],[73.6321,10.0687],[73.6322,10.0686],[73.6324,10.0687],[73.6324,10.0688],[73.6324,10.0689]]],[[[73.6302,10.0683],[73.6303,10.0685],[73.6302,10.0685],[73.63,10.0685],[73.6299,10.0683],[73.6301,10.0682],[73.6302,10.0683]]],[[[73.6307,10.0691],[73.6306,10.0691],[73.6305,10.069],[73.6304,10.0689],[73.6306,10.0688],[73.6308,10.0689],[73.6309,10.069],[73.6309,10.0691],[73.6308,10.0691],[73.6307,10.0691]]],[[[73.628,10.0725],[73.6282,10.0729],[73.6285,10.0732],[73.6288,10.0736],[73.6286,10.0738],[73.6282,10.0736],[73.6281,10.0737],[73.6281,10.0738],[73.6285,10.074],[73.6286,10.0742],[73.6284,10.0743],[73.6281,10.0743],[73.6278,10.0742],[73.6274,10.0739],[73.6271,10.0736],[73.6265,10.0731],[73.6262,10.0728],[73.6263,10.0725],[73.6267,10.0721],[73.6272,10.0722],[73.628,10.0725]]],[[[73.6299,10.0745],[73.6299,10.0744],[73.6299,10.0743],[73.6299,10.0742],[73.63,10.0742],[73.6301,10.0741],[73.6303,10.0743],[73.6305,10.0745],[73.6305,10.0746],[73.6306,10.0748],[73.6305,10.075],[73.6304,10.075],[73.6303,10.0749],[73.6302,10.0748],[73.6299,10.0747],[73.6299,10.0745]]],[[[73.6315,10.0692],[73.6315,10.0691],[73.6314,10.069],[73.6315,10.069],[73.6316,10.069],[73.6318,10.069],[73.6319,10.0691],[73.6318,10.0692],[73.6317,10.0692],[73.6315,10.0692]]],[[[73.6329,10.0699],[73.6325,10.0694],[73.6324,10.069],[73.6325,10.0688],[73.633,10.0688],[73.6333,10.0693],[73.6333,10.0696],[73.6332,10.0699],[73.6331,10.07],[73.6329,10.0699]]],[[[73.6345,10.0724],[73.6343,10.0724],[73.6339,10.0723],[73.6337,10.0722],[73.6337,10.0717],[73.6339,10.0714],[73.6345,10.0715],[73.6349,10.0718],[73.6348,10.0722],[73.6347,10.0723],[73.6345,10.0724]]],[[[73.6479,10.0632],[73.648,10.0641],[73.648,10.0656],[73.6479,10.0669],[73.648,10.0677],[73.648,10.0703],[73.6478,10.0724],[73.6477,10.0734],[73.6477,10.0751],[73.6474,10.0765],[73.6475,10.0773],[73.6477,10.0781],[73.6477,10.0795],[73.6479,10.0813],[73.6481,10.0824],[73.6485,10.0836],[73.649,10.085],[73.6491,10.0858],[73.6493,10.0867],[73.6493,10.0873],[73.6494,10.0887],[73.6497,10.0902],[73.6498,10.0914],[73.6501,10.0928],[73.6503,10.0937],[73.6513,10.0967],[73.6516,10.0983],[73.6517,10.0998],[73.6518,10.1004],[73.6515,10.1016],[73.6515,10.1019],[73.6513,10.102],[73.6511,10.1012],[73.6511,10.1],[73.651,10.0987],[73.6506,10.0968],[73.6502,10.0955],[73.65,10.0949],[73.6496,10.0941],[73.6493,10.0931],[73.6488,10.0921],[73.6485,10.0911],[73.6484,10.0895],[73.6482,10.0884],[73.6478,10.0872],[73.6474,10.0862],[73.6465,10.0843],[73.6459,10.0826],[73.6456,10.0812],[73.6452,10.0797],[73.6448,10.0788],[73.6445,10.0779],[73.6443,10.077],[73.6442,10.0763],[73.6437,10.0754],[73.6432,10.0746],[73.6428,10.0739],[73.6422,10.0732],[73.6417,10.0727],[73.6416,10.0726],[73.6411,10.0718],[73.6405,10.0711],[73.6398,10.0708],[73.6389,10.0705],[73.638,10.0705],[73.6373,10.0709],[73.6367,10.0712],[73.6357,10.0716],[73.6353,10.0716],[73.6351,10.0713],[73.6353,10.0709],[73.6354,10.0705],[73.6359,10.0697],[73.6367,10.0685],[73.6375,10.0674],[73.638,10.0663],[73.6384,10.0653],[73.6389,10.0643],[73.6393,10.0632],[73.6398,10.0618],[73.6401,10.061],[73.6401,10.0606],[73.6396,10.0599],[73.6396,10.0591],[73.6397,10.0585],[73.6403,10.0579],[73.6412,10.0572],[73.6422,10.057],[73.6435,10.0569],[73.6447,10.057],[73.6456,10.0571],[73.6462,10.0575],[73.6469,10.0581],[73.6473,10.0587],[73.6476,10.0593],[73.6478,10.0605],[73.6478,10.062],[73.6479,10.0632]]],[[[73.6522,10.1095],[73.652,10.1093],[73.652,10.1091],[73.6521,10.1087],[73.6524,10.1086],[73.6526,10.1086],[73.6527,10.1089],[73.6527,10.1092],[73.6526,10.1093],[73.6524,10.1095],[73.6522,10.1095]]],[[[73.662,10.1469],[73.6616,10.148],[73.6613,10.1494],[73.6611,10.1507],[73.6609,10.1518],[73.6605,10.1532],[73.6604,10.1542],[73.6604,10.1549],[73.6602,10.1553],[73.6597,10.1555],[73.6591,10.1554],[73.6584,10.155],[73.658,10.1547],[73.6578,10.1539],[73.6578,10.1531],[73.6579,10.1527],[73.6582,10.1525],[73.6585,10.1527],[73.6585,10.1531],[73.6584,10.1535],[73.6584,10.1539],[73.6586,10.1539],[73.6587,10.1534],[73.6591,10.1526],[73.6594,10.1518],[73.6594,10.1508],[73.6596,10.1499],[73.66,10.1485],[73.6604,10.1477],[73.661,10.1461],[73.6617,10.1447],[73.6621,10.1433],[73.6623,10.1421],[73.6624,10.1407],[73.6623,10.1388],[73.6622,10.1373],[73.662,10.136],[73.6617,10.135],[73.6613,10.1337],[73.661,10.1326],[73.6609,10.1316],[73.6609,10.1305],[73.6605,10.1299],[73.66,10.1295],[73.66,10.1294],[73.6601,10.1292],[73.6605,10.1293],[73.6609,10.1295],[73.6614,10.1299],[73.6617,10.1306],[73.6621,10.1322],[73.6625,10.1335],[73.6629,10.1344],[73.6633,10.1357],[73.6635,10.1365],[73.6639,10.1385],[73.6642,10.1397],[73.6643,10.1411],[73.664,10.142],[73.6636,10.1435],[73.663,10.1451],[73.6628,10.1456],[73.662,10.1469]]],[[[73.672,10.817],[73.6714,10.817],[73.6706,10.8168],[73.6705,10.8168],[73.6698,10.8172],[73.6692,10.8174],[73.6681,10.8176],[73.6665,10.8176],[73.6655,10.8175],[73.6649,10.8174],[73.6637,10.8174],[73.663,10.8173],[73.662,10.8171],[73.6615,10.8169],[73.6608,10.8164],[73.6603,10.8158],[73.66,10.8152],[73.6597,10.8145],[73.6596,10.8139],[73.6596,10.8133],[73.6596,10.8121],[73.6599,10.811],[73.6603,10.8096],[73.661,10.8083],[73.6613,10.8077],[73.6626,10.8065],[73.6638,10.8057],[73.6659,10.805],[73.6674,10.8047],[73.6688,10.8044],[73.6698,10.8042],[73.6706,10.8041],[73.6718,10.804],[73.6731,10.8039],[73.6748,10.8039],[73.6758,10.804],[73.6774,10.8042],[73.6783,10.8045],[73.68,10.8051],[73.6812,10.8054],[73.6834,10.8059],[73.6843,10.8062],[73.6859,10.807],[73.6881,10.8079],[73.6904,10.809],[73.6919,10.8096],[73.6927,10.8098],[73.693,10.8099],[73.6938,10.8101],[73.6947,10.8104],[73.6957,10.8108],[73.6966,10.811],[73.6982,10.8114],[73.6989,10.8116],[73.6992,10.8115],[73.6999,10.8117],[73.7004,10.8121],[73.701,10.8126],[73.7013,10.8129],[73.7015,10.8132],[73.7015,10.8135],[73.7015,10.8137],[73.7015,10.8138],[73.7018,10.8143],[73.7018,10.8149],[73.7016,10.8155],[73.7011,10.8159],[73.7004,10.8163],[73.6995,10.8164],[73.6982,10.8164],[73.6965,10.8166],[73.6955,10.8167],[73.6942,10.8167],[73.6927,10.8167],[73.6919,10.8168],[73.6914,10.8169],[73.6907,10.817],[73.6892,10.8169],[73.6889,10.8168],[73.6885,10.8168],[73.6881,10.8167],[73.6878,10.8166],[73.6873,10.8165],[73.6872,10.8164],[73.6868,10.8164],[73.6864,10.8164],[73.6857,10.8165],[73.6845,10.8166],[73.6833,10.8166],[73.6818,10.8165],[73.6812,10.8166],[73.6805,10.8169],[73.6799,10.8171],[73.6795,10.8171],[73.6787,10.8171],[73.678,10.8171],[73.6772,10.8166],[73.6766,10.8163],[73.6762,10.8164],[73.6756,10.8166],[73.675,10.8168],[73.6741,10.8169],[73.6729,10.8169],[73.672,10.817]]],[[[72.7191,11.1148],[72.7195,11.1142],[72.7198,11.1139],[72.7201,11.1138],[72.7203,11.114],[72.7205,11.1146],[72.721,11.1151],[72.7221,11.116],[72.7247,11.1181],[72.7268,11.1199],[72.7274,11.1204],[72.7291,11.1225],[72.7304,11.1244],[72.7313,11.1257],[72.7324,11.128],[72.7329,11.1296],[72.7333,11.1306],[72.7337,11.1317],[72.7343,11.1333],[72.7345,11.1344],[72.7346,11.1349],[72.7344,11.1355],[72.7341,11.1361],[72.7337,11.1364],[72.7332,11.1366],[72.7329,11.1366],[72.7319,11.1368],[72.7311,11.1368],[72.7306,11.1368],[72.7301,11.1367],[72.7293,11.1363],[72.7285,11.1358],[72.7279,11.1352],[72.7267,11.1342],[72.7257,11.1335],[72.725,11.1331],[72.7243,11.1327],[72.7232,11.1321],[72.7221,11.1313],[72.721,11.1305],[72.7204,11.1298],[72.7195,11.1287],[72.7186,11.1273],[72.7183,11.1267],[72.7175,11.125],[72.717,11.1238],[72.7167,11.1224],[72.7166,11.1217],[72.7167,11.1205],[72.7166,11.12],[72.7167,11.1195],[72.717,11.1181],[72.7175,11.117],[72.7176,11.1165],[72.7182,11.1159],[72.7188,11.1153],[72.7191,11.1148]]],[[[72.7619,11.1831],[72.7618,11.1829],[72.7618,11.1828],[72.7619,11.1828],[72.7621,11.1829],[72.7624,11.1831],[72.7627,11.1833],[72.763,11.1838],[72.7631,11.1842],[72.7635,11.1855],[72.7636,11.1863],[72.7637,11.1869],[72.764,11.1889],[72.7643,11.19],[72.7647,11.1912],[72.7651,11.1925],[72.7656,11.194],[72.7658,11.1945],[72.7662,11.1953],[72.7663,11.196],[72.7666,11.1966],[72.7669,11.1973],[72.767,11.1978],[72.7671,11.1983],[72.7674,11.199],[72.7677,11.1999],[72.7683,11.2017],[72.7686,11.2025],[72.769,11.2038],[72.7694,11.2049],[72.7697,11.2057],[72.7702,11.2067],[72.7707,11.2075],[72.7713,11.2083],[72.772,11.2093],[72.7726,11.2101],[72.7732,11.2109],[72.774,11.2119],[72.7751,11.2136],[72.7757,11.2145],[72.7763,11.2155],[72.7767,11.2164],[72.7771,11.2174],[72.7775,11.2185],[72.7779,11.2197],[72.7782,11.2208],[72.7782,11.2213],[72.7782,11.2217],[72.7784,11.2223],[72.7784,11.2229],[72.7786,11.2236],[72.7789,11.2244],[72.7791,11.2253],[72.7793,11.2262],[72.7796,11.2271],[72.7798,11.2281],[72.7802,11.2292],[72.7803,11.2298],[72.7804,11.2304],[72.7806,11.2313],[72.7807,11.232],[72.781,11.2326],[72.7814,11.2334],[72.7816,11.234],[72.7817,11.2347],[72.782,11.2355],[72.7822,11.2363],[72.7824,11.2369],[72.7827,11.2377],[72.7831,11.2388],[72.7835,11.2395],[72.7837,11.24],[72.7838,11.2404],[72.7839,11.2408],[72.7842,11.242],[72.7843,11.2424],[72.7845,11.2431],[72.7849,11.2439],[72.7853,11.2445],[72.7855,11.2452],[72.786,11.2462],[72.7862,11.247],[72.7867,11.2482],[72.7872,11.2491],[72.7877,11.2502],[72.7881,11.2512],[72.7886,11.2523],[72.789,11.2531],[72.7894,11.2541],[72.7896,11.2548],[72.7898,11.2551],[72.7901,11.2555],[72.7901,11.256],[72.7903,11.2564],[72.7903,11.2568],[72.7903,11.2573],[72.7905,11.2577],[72.7905,11.2582],[72.7905,11.259],[72.7906,11.2599],[72.7906,11.2601],[72.7905,11.2603],[72.7903,11.2605],[72.79,11.2605],[72.7898,11.2604],[72.7894,11.2602],[72.7888,11.2598],[72.7883,11.2594],[72.7879,11.2593],[72.7877,11.2592],[72.7875,11.2591],[72.787,11.2586],[72.7865,11.2578],[72.7859,11.257],[72.7855,11.2559],[72.785,11.2545],[72.7845,11.2536],[72.7841,11.2525],[72.7838,11.2518],[72.7836,11.2513],[72.7831,11.2505],[72.7827,11.2492],[72.7823,11.2483],[72.782,11.2476],[72.7812,11.246],[72.7807,11.2451],[72.7802,11.244],[72.78,11.2435],[72.7795,11.2426],[72.7793,11.2419],[72.7792,11.2414],[72.7789,11.2406],[72.7787,11.2399],[72.7785,11.2392],[72.7783,11.2384],[72.7782,11.2378],[72.778,11.2374],[72.7777,11.2366],[72.7774,11.2353],[72.7771,11.2341],[72.7768,11.2329],[72.7763,11.2315],[72.776,11.2303],[72.7758,11.2294],[72.7757,11.2288],[72.7753,11.2278],[72.775,11.2267],[72.7746,11.2253],[72.7741,11.224],[72.7739,11.2232],[72.7738,11.2223],[72.7736,11.2219],[72.7734,11.2213],[72.7731,11.2205],[72.7728,11.2198],[72.7725,11.2191],[72.7724,11.2184],[72.7723,11.2177],[72.7723,11.2173],[72.7722,11.2169],[72.7719,11.2161],[72.7714,11.2148],[72.7709,11.2136],[72.7707,11.213],[72.7705,11.212],[72.77,11.2108],[72.7697,11.2098],[72.7694,11.2089],[72.7691,11.2081],[72.7688,11.2074],[72.7686,11.2069],[72.7683,11.2062],[72.7681,11.2055],[72.768,11.205],[72.7678,11.2044],[72.7676,11.2037],[72.7674,11.2032],[72.7669,11.2023],[72.7665,11.2015],[72.7661,11.2005],[72.7657,11.1995],[72.7654,11.1988],[72.765,11.198],[72.7647,11.1971],[72.7645,11.1963],[72.7641,11.1949],[72.7638,11.1938],[72.7636,11.1932],[72.7634,11.1921],[72.7633,11.1913],[72.7632,11.1904],[72.7633,11.1894],[72.7633,11.189],[72.7634,11.1884],[72.7634,11.1877],[72.763,11.1858],[72.7629,11.1856],[72.7629,11.1851],[72.7627,11.1845],[72.7626,11.1841],[72.7624,11.1839],[72.7622,11.1835],[72.7619,11.1831]]],[[[73.0071,11.4699],[73.0075,11.4697],[73.0078,11.4696],[73.008,11.4696],[73.0083,11.4697],[73.0088,11.4699],[73.0093,11.4703],[73.0108,11.4715],[73.0113,11.472],[73.0115,11.4724],[73.0117,11.4727],[73.0118,11.4731],[73.0113,11.4747],[73.0108,11.4763],[73.0105,11.477],[73.0104,11.4773],[73.0104,11.4778],[73.0101,11.4792],[73.0099,11.4806],[73.0099,11.482],[73.0098,11.4834],[73.0098,11.4848],[73.0098,11.4861],[73.0099,11.4875],[73.0093,11.4887],[73.0091,11.4891],[73.0083,11.4905],[73.0076,11.492],[73.0069,11.4934],[73.0063,11.4945],[73.0059,11.4951],[73.0052,11.4958],[73.0047,11.4964],[73.0039,11.497],[73.0033,11.4976],[73.0029,11.4979],[73.002,11.4982],[73.0013,11.4984],[73.0006,11.4985],[72.9998,11.4984],[72.9995,11.4983],[72.9989,11.4981],[72.9984,11.4978],[72.9981,11.4975],[72.9981,11.4973],[72.9981,11.4971],[72.9982,11.4969],[72.9986,11.4964],[72.9991,11.4957],[72.9993,11.4953],[72.9995,11.4949],[72.9996,11.4945],[72.9999,11.4941],[73.0003,11.4939],[73.0006,11.4937],[73.0012,11.4937],[73.0016,11.4936],[73.0019,11.4935],[73.0022,11.4933],[73.0024,11.4931],[73.0025,11.4929],[73.0027,11.4923],[73.0028,11.4919],[73.0032,11.4906],[73.0034,11.4897],[73.0037,11.4887],[73.0039,11.4875],[73.0041,11.4868],[73.0042,11.4857],[73.0043,11.4849],[73.0045,11.4838],[73.0047,11.4829],[73.005,11.4821],[73.0053,11.4812],[73.0053,11.4808],[73.0055,11.4794],[73.0056,11.4789],[73.0058,11.4779],[73.0063,11.4768],[73.0067,11.4759],[73.0071,11.4751],[73.0074,11.4746],[73.0076,11.4738],[73.008,11.473],[73.0081,11.4726],[73.0081,11.4724],[73.0081,11.4722],[73.008,11.472],[73.0078,11.4718],[73.0074,11.4715],[73.0072,11.4713],[73.0071,11.4711],[73.007,11.4708],[73.007,11.4705],[73.007,11.4701],[73.0071,11.47],[73.0071,11.4699]]],[[[72.7074,11.6825],[72.709,11.6825],[72.71,11.6835],[72.711,11.685],[72.7122,11.6867],[72.7134,11.6882],[72.7145,11.6898],[72.7161,11.6918],[72.7169,11.6934],[72.7174,11.6947],[72.7174,11.6977],[72.7172,11.7012],[72.7169,11.7025],[72.7166,11.7039],[72.7162,11.7034],[72.7152,11.7022],[72.7141,11.7008],[72.7137,11.6998],[72.7137,11.6987],[72.713,11.6974],[72.7123,11.696],[72.7111,11.6939],[72.7105,11.6926],[72.71,11.6908],[72.7093,11.6876],[72.7088,11.6861],[72.7079,11.6853],[72.707,11.6849],[72.7064,11.6849],[72.706,11.6844],[72.7056,11.6835],[72.7056,11.6829],[72.7057,11.6825],[72.7074,11.6825]]]]},"properties":{"shapeName":"Lakshadweep","shapeISO":"IN-LD","shapeID":"1811400B55669546485086","shapeGroup":"IND","shapeType":"ADM1"}}
]}